IRIDIUM 171             
1 43929U 19002H   23295.56498309  .00000765  00000+0  26600-3 0  9998
2 43929  86.4015  38.5745 0002285  95.6109 264.5347 14.34217196250121
IRIDIUM 170             
1 43930U 19002J   23295.55726105  .00000349  00000+0  51368-4 0  9995
2 43930  86.6137  38.4333 0002060  95.8720 264.2732 14.72264346256744
IRIDIUM 167             
1 43931U 19002K   23295.55864379  .00000524  00000+0  17997-3 0  9996
2 43931  86.4008  38.3924 0002157  98.2751 261.8690 14.34219709250126
IRIDIUM 181             
1 56726U 23068S   23295.45017239  .00000715  00000+0  20544-3 0  9997
2 56726  86.8593  80.6002 0002306 125.5094 234.6323 14.43597740 22696
IRIDIUM 177             
1 56727U 23068T   23295.45620667  .00002586  00000+0  33704-3 0  9993
2 56727  86.1962  68.6856 0002330  91.4924 268.6564 14.80204132 23060
IRIDIUM 174             
1 56728U 23068U   23295.45077430  .00002584  00000+0  33685-3 0  9994
2 56728  86.1969  68.7720 0002148  87.1134 273.0333 14.80203728 23065
IRIDIUM 178             
1 56729U 23068V   23295.51290566  .00002289  00000+0  29802-3 0  9997
2 56729  86.5756  74.8978 0002363  86.3679 273.7813 14.80204800 23074
IRIDIUM 179             
1 56730U 23068W   23295.50751765  .00002345  00000+0  30542-3 0  9997
2 56730  86.6763  76.0291 0002302  90.0541 270.0945 14.80204676 23077
